#aV2019 12 31  0  0  0.00000000     288 DD+AD WGS84 FIT  NGA
## 2086 172800.00000000   300.00000000 58848 0.0000000000000
+   32     1  2  3  4  5  6  7  8  9 10 11 12 13 14 15 16 17
+         18 19 20 21 22 23 24 25 26 27 28 29 30 31 32  0  0
+          0  0  0  0  0  0  0  0  0  0  0  0  0  0  0  0  0
+          0  0  0  0  0  0  0  0  0  0  0  0  0  0  0  0  0
+          0  0  0  0  0  0  0  0  0  0  0  0  0  0  0  0  0
++         2  2  2  2  2  2  2  2  2  2  2  2  2  2  2  2  2
++         2  2  2  2  2  2  2  2  2  2  2  2  2  2  2  0  0
++         0  0  0  0  0  0  0  0  0  0  0  0  0  0  0  0  0
++         0  0  0  0  0  0  0  0  0  0  0  0  0  0  0  0  0
++         0  0  0  0  0  0  0  0  0  0  0  0  0  0  0  0  0
%c cc cc ccc ccc cccc cccc cccc cccc ccccc ccccc ccccc ccccc
%c cc cc ccc ccc cccc cccc cccc cccc ccccc ccccc ccccc ccccc
%f  0.0000000  0.000000000  0.00000000000  0.000000000000000
%f  0.0000000  0.000000000  0.00000000000  0.000000000000000
%i    0    0    0    0      0      0      0      0         0
%i    0    0    0    0      0      0      0      0         0
/*      NGA, ST. LOUIS,MO.                                  
/*   EPHEMERIS COMPUTED FROM 2 DAYS OF DATA                 
/*   EPOCHA v5 SMOOTHER                                     
/*   G1762 IERS2010 SATAF SATAPC                            
*  2019 12 31 20 50  0.00000000
P  1 -17088.569287 -13944.930111 -15232.963995   -247.763792                    
V  1  18710.242206   2416.780989 -23203.407841     -0.122270                    
P  2  -6344.172837  14676.199990  21832.218653   -377.173336                    
V  2 -25990.609206  -3814.245503  -5245.298889     -0.072870                    
P  3 -13404.254033 -21391.868428   8342.163073    -63.316821                    
V  3  -1131.645598 -10860.229363 -29370.858324     -0.073053                    
P  4  -8737.161304 -12804.576949  21572.334210    -27.892065                    
V  4  18932.214166 -19787.465285  -4097.285617     -0.051702                    
P  5    834.856928  24101.478073  10770.373765     -5.457609                    
V  5  -7596.024768 -12066.304905  27436.524981     -0.005288                    
P  6 -19253.171847   7682.697294  16676.063808   -169.560263                    
V  6 -20355.563467  -5453.992976 -21022.610366     -0.106573                    
P  7 -26165.867724  -5900.477990    556.619214   -182.117955                    
V  7    890.661289  -2490.886696  31281.585779     -0.082631                    
P  8    203.384274 -19362.082729 -18038.237333    -18.659756                    
V  8  16095.596676 -16560.309224  18148.797325     -0.012983                    
P  9 -16687.209053  -2788.115739  20419.715960   -121.742477                    
V  9  16083.482152 -20559.587428  10297.456932     -0.091501                    
P 10  14139.396503  -5297.204820 -21777.454414   -192.878775                    
V 10   9198.914366  26247.171206   -636.208075     -0.138762                    
P 11 -13009.172451 -12470.918115 -19913.273163   -403.272354                    
V 11  23264.523934  -7928.280985 -10802.790587      0.109008                    
P 12   9639.861799  24390.076278   4533.765300    167.257193                    
V 12   -421.793843   6317.308863 -31385.924497     -0.040640                    
P 13  -9405.200366  20863.173176 -13538.486873    -23.017377                    
V 13 -14076.980210   9758.295416  25121.129628      0.024961                    
P 14  18106.394427 -19249.669420   1610.474448    -41.535880                    
V 14   3278.209036    975.700096 -31772.290781      0.022647                    
P 15   3053.030463  19245.002345 -18184.717340   -261.792058                    
V 15 -14926.828544  17291.872832  16449.185600      0.026416                    
P 16   2170.779273 -23494.941905  11535.152895   -108.790355                    
V 16   5783.135164  14111.633027  27626.474418     -0.039653                    
P 17 -21045.933296  13453.772763  -8503.152613    190.629671                    
V 17   6481.570378  -9590.789893 -29792.437472      0.067827                    
P 18  -8863.288295 -15585.391951 -20129.197136    110.434338                    
V 18  24350.272891   2415.299479 -12829.467381      0.025383                    
P 19 -20242.426787  17125.296274  -1947.040512   -218.728294                    
V 19     99.597259  -2982.991449 -32087.196617      0.051616                    
P 20  18174.205795   5409.867838 -18769.128705    527.733550                    
V 20   8979.499050  21959.181920  14896.497004      0.000348                    
P 21  26231.468774   2617.912964  -1164.904003    -62.516147                    
V 21   1979.035431   3642.381156  31653.255580      0.056446                    
P 22 -10957.699190 -24256.118789    520.261104   -780.149851                    
V 22   3239.578326  -1849.930667 -30969.593565     -0.016145                    
P 23 -11026.856712 -11334.654820  21672.188228   -146.042626                    
V 23  17454.208186 -20323.344092  -2160.236291      0.024088                    
P 24  15570.621007  14344.329119 -16437.231277     -6.955663                    
V 24 -20542.990303   -794.921774 -20022.204861     -0.005201                    
P 25  16056.958414  14614.604247  15257.986256    -16.801664                    
V 25   4659.129899  19168.659086 -22670.013147      0.005176                    
P 26   7616.823051 -17371.599549  18484.042748    117.621883                    
V 26   9974.380606  21493.430987  16279.920055      0.080854                    
P 27  10387.893918 -22175.223459  -9985.685159   -167.406352                    
V 27   9953.609188  -8031.979347  28829.625560     -0.114693                    
P 28 -13414.362525   6011.140212 -21533.772634    747.756772                    
V 28  -6960.785084 -27870.549542  -3223.900114     -0.020035                    
P 29  15781.994015   3878.245196  20982.323239      4.167956                    
V 29 -18380.352160  19290.963579  10224.247953     -0.096782                    
P 30 -24401.791684   2114.665255 -10486.568521   -118.695991                    
V 30 -12306.584011  -5894.429150  27175.204374     -0.087381                    
P 31  17744.055677  -8852.261933  17858.328153    -13.513767                    
V 31  21708.264452   6335.965497 -17942.462449     -0.025046                    
P 32  20437.860103 -14471.625212  -8580.736417    171.896907                    
V 32  -5036.883518  10213.369207 -29146.922009      0.109667                    
EOF
